STARLINK-2757
1 28604C 21041BD  21325.19253627  .00000180  00000-0  12063-4 0  3256
2 28604  53.0552 347.3632 0001672  62.5823 230.8817 15.06391302    14
